# Made by eph2tle, compiled Jul 30 2020 21:38:02
# Run at Thu Aug  6 10:51:38 2020
#
# No updates (heliocentric object and we're losing it)
#
#    WARNING:  for this object,  "normal" TLEs (Two-Line Elements) cannot
# be fitted.  (This usually means an object with an hyperbolic or nearly
# parabolic orbit.)  In such cases,  I use an alternative "high-altitude"
# model,  in which most of the traditional TLE data is replaced by six
# signed 8-digit base-36 numbers.  These six numbers are a state vector,
# numerically integrated using a simplified force model.  This is usually
# necessary for objects at L2 or L1,  and sometimes for objects in high
# orbits where the SDP4/SGP4 model fails or gives poor results.  It is
# _always_ needed for objects with hyperbolic geocentric orbits (SGP4 and
# SDP4 can't handle such orbits at all).  Source code for this (and for
# SGP4/SDP4) is available at
#
#    https://github.com/Bill-Gray/sat_code
#
#    But be aware:  this "high-altitude" model is my own extension,  not
# used by anybody else,  and is therefore used only when necessary.
#
#    As with more 'normal' TLEs,  the following were generated by fitting
# to a numerically-integrated ephemeris,  based on the orbit given below.
# Each TLE is good for the interval between   its epoch and the epoch of
# the subsequent TLE (usually one day).   The maximum deviation between
# the numerically integrated ephemerides   and the TLE-based ephemeris, in
# kilometers,  is given for each TLE   as the "worst residual".
#
#    This fitting is done using the 'eph2tle' code packaged with Find_Orb.
# The code has details on how the TLEs were computed :
#
#    https://github.com/Bill-Gray/find_orb/eph2tle.cpp
#
#    Be warned:  the error given is that between the numerically
# integrated ephems and the TLE model.  There will usually be at
# least some additional difference between the ephems and the actual
# motion of the satellite,  especially if the ephemerides are based
# on a short arc.  If the following orbital elements say something
# like "[based on] 10 observations 2015 Jan. 1-13",  and the TLEs
# are for 2015 May,  the extrapolation may be tenuous at best.  If
# your application requires a specific level of accuracy,  you may
# want to contact me;  I can give you some idea as to the fit of the
# underlying data (and possibly TLEs based on newer data).
#
#   You can usually find the underlying observational data,  and the
# fitted orbit,  residuals,  ephemerides,  and sometimes some comments
# about the object,  among the pages listed at
#
#    https://www.projectpluto.com/pluto/mpecs/pseudo.htm
#
#    Also,  if you use a TLE outside the "correct" time range (between
# its MJD and that of the next TLE),  all bets are off.  I've carefully
# computed and minimized the worst error over the "correct" time frame,
# but the ephemeris may (or may not) diverge wildly outside of it.
#
# Ephem range: 59054.000000 59074.000000 1.000000
# Created Thu Aug  6 10:51:18 2020
# Ephemeris start: 24 Jul 2020  0:00:00
# Ephemeris end:   13 Aug 2020  0:00:00
# Times are all TDT
# Positions/velocities are in equatorial J2000
# Orbital elements:  2020-049A = NORAD 45935 = Tianwen-1 spacecraft
#    Perihelion 2020 Jul 18.85827791 +/- 5.32e-5 TT = 20:35:55.211 (JD 2459049.35827791)
# Epoch 2020 Jul 30.0 TT = JDT 2459060.5   Earth MOID: 0.0001   Ma: 0.0150
# M   7.28430166558 +/- 0.00022       (J2000 ecliptic)          Find_Orb
# n   0.65378597721 +/- 2.34e-5       Peri.  355.77670796 +/- 0.00013
# a   1.31475747414 +/- 3.13e-5       Node   300.14841621 +/- 0.000046
# e   0.2275556762 +/- 1.84e-5        Incl.    1.06078902 +/- 0.00006
# P   1.51/550.63d           H 26.4   G  0.15   U  5.6
# q 1.01557694800 +/- 6.48e-8    Q 1.61393800027 +/- 6.27e-5
# 110 of 113 observations 2020 July 23-30; mean residual 0".314
#
# 1 NoradU COSPAR   Epoch.epoch     dn/dt/2  d2n/dt2/6 BSTAR    T El# C
# 2 NoradU Inclina RAAscNode Eccent  ArgPeri MeanAno  MeanMotion Rev# C

# Worst residual: 4.24 km
# MJD 59054.000000 (2020 Jul 24  0:00)
2020-049A = NORAD 45935 = Tianwen-1 spacecraft
1 45935U 20049A   20205.99919926 +004MMGSL +000WDVZI +001AU9F1H  9492
2 45935                          +000L2N42 +0005HZ9U +0006OCX8     04

# Worst residual: 9.96 km
# MJD 59055.000000 (2020 Jul 25  0:00)
2020-049A = NORAD 45935 = Tianwen-1 spacecraft
1 45935U 20049A   20206.99919926 +009J36WF +0026OWQC +002UV8UNH  9494
2 45935                          +000K12K2 +00059MMR +0006D2Q3     08

# Worst residual: 1.64 km
# MJD 59056.000000 (2020 Jul 26  0:00)
2020-049A = NORAD 45935 = Tianwen-1 spacecraft
1 45935U 20049A   20207.99919926 +00EAJGAN +003FS062 +004DB866H  9494
2 45935                          +000JPBM4 +00056FZT +000693LJ     01

# Worst residual: 0.88 km
# MJD 59057.000000 (2020 Jul 27  0:00)
2020-049A = NORAD 45935 = Tianwen-1 spacecraft
1 45935U 20049A   20208.99919926 +00J00KNY +004OAD1O +005V1SSDH  9491
2 45935                          +000JJIZY +00054LE9 +00066VPD     08

# Worst residual: 1.02 km
# MJD 59058.000000 (2020 Jul 28  0:00)
2020-049A = NORAD 45935 = Tianwen-1 spacecraft
1 45935U 20049A   20209.99919926 +00NOEPQD +005WF85G +007CCHL7H  9493
2 45935                          +000JFZKI +000538SK +00065BUE     05

# Worst residual: 1.15 km
# MJD 59059.000000 (2020 Jul 29  0:00)
2020-049A = NORAD 45935 = Tianwen-1 spacecraft
1 45935U 20049A   20210.99919926 +00SC3A5H +00749DTC +008TB7MAH  9496
2 45935                          +000JDHGQ +000522VL +000642KF     09

# Worst residual: 1.25 km
# MJD 59060.000000 (2020 Jul 30  0:00)
2020-049A = NORAD 45935 = Tianwen-1 spacecraft
1 45935U 20049A   20211.99919926 +00WZ8PN8 +008BTO84 +00A9ZOR5H  9494
2 45935                          +000JBI1I +00050XRT +00062XPG     02

# Worst residual: 1.30 km
# MJD 59061.000000 (2020 Jul 31  0:00)
2020-049A = NORAD 45935 = Tianwen-1 spacecraft
1 45935U 20049A   20212.99919926 +011LYA9S +009J3T00 +00BQEJ0SH  9498
2 45935                          +000J9SAM +0004ZPOD +00061TTA     08

# Worst residual: 1.33 km
# MJD 59062.000000 (2020 Aug  1  0:00)
2020-049A = NORAD 45935 = Tianwen-1 spacecraft
1 45935U 20049A   20213.99919926 +01689PUJ +00AQ2PNL +00D6JOJ5H  9493
2 45935                          +000J87PH +0004YBSA +00060ONL     03

# Worst residual: 1.38 km
# MJD 59063.000000 (2020 Aug  2  0:00)
2020-049A = NORAD 45935 = Tianwen-1 spacecraft
1 45935U 20049A   20214.99919926 +01AU7YKL +00BWOQ9I +00EMEN5JH  9499
2 45935                          +000J6Q6E +0004WPWI +0005ZGN8     07

# Worst residual: 1.49 km
# MJD 59064.000000 (2020 Aug  3  0:00)
2020-049A = NORAD 45935 = Tianwen-1 spacecraft
1 45935U 20049A   20215.99919926 +01FFTN5Y +00D2VPZY +00G1YKVIH  9497
2 45935                          +000J5B19 +0004UUAS +0005Y4LF     06

# Worst residual: 1.67 km
# MJD 59065.000000 (2020 Aug  4  0:00)
2020-049A = NORAD 45935 = Tianwen-1 spacecraft
1 45935U 20049A   20216.99919926 +01K13CPL +00E8L6W4 +00HH6EPXH  9498
2 45935                          +000J3YI1 +0004SNNO +0005WNLT     01

# Worst residual: 1.92 km
# MJD 59066.000000 (2020 Aug  5  0:00)
2020-049A = NORAD 45935 = Tianwen-1 spacecraft
1 45935U 20049A   20217.99919926 +01OM1SSA +00FDQD8R +00IW0UZBH  9490
2 45935                          +000J2PCL +0004Q519 +0005V10E     05

# Worst residual: 2.18 km
# MJD 59067.000000 (2020 Aug  6  0:00)
2020-049A = NORAD 45935 = Tianwen-1 spacecraft
1 45935U 20049A   20218.99919926 +01T6PX6S +00GI8APS +00KAGJ29H  9493
2 45935                          +000J1KOE +0004N9TW +0005T8C7     02

# Worst residual: 2.42 km
# MJD 59068.000000 (2020 Aug  7  0:00)
2020-049A = NORAD 45935 = Tianwen-1 spacecraft
1 45935U 20049A   20219.99919926 +01XR4Y0C +00HLZX23 +00LOFX0YH  9492
2 45935                          +000J0LR0 +0004K1QB +0005R9A6     03

# Worst residual: 2.60 km
# MJD 59069.000000 (2020 Aug  8  0:00)
2020-049A = NORAD 45935 = Tianwen-1 spacecraft
1 45935U 20049A   20220.99919926 +022BCELW +00IOY4CZ +00N1XGVBH  9493
2 45935                          +000IZTWD +0004GGNL +0005P3O0     00

# Worst residual: 2.73 km
# MJD 59070.000000 (2020 Aug  9  0:00)
2020-049A = NORAD 45935 = Tianwen-1 spacecraft
1 45935U 20049A   20221.99919926 +026VE5XB +00JQZSU6 +00OEVLJHH  9494
2 45935                          +000IZAGS +0004CIPF +0005MRF4     01

# Worst residual: 2.83 km
# MJD 59071.000000 (2020 Aug 10  0:00)
2020-049A = NORAD 45935 = Tianwen-1 spacecraft
1 45935U 20049A   20222.99919926 +02BFCEGY +00KS1W7H +00PR8PQIH  9494
2 45935                          +000IZ0SA +0004884F +0005K8JU     05

# Worst residual: 2.97 km
# MJD 59072.000000 (2020 Aug 11  0:00)
2020-049A = NORAD 45935 = Tianwen-1 spacecraft
1 45935U 20049A   20223.99919926 +02FZ9M7V +00LS1ERL +00R2Z8IXH  9496
2 45935                          +000IZ26F +00043L9D +0005HJ4W     01

# Worst residual: 3.20 km
# MJD 59073.000000 (2020 Aug 12  0:00)
2020-049A = NORAD 45935 = Tianwen-1 spacecraft
1 45935U 20049A   20224.99919926 +02KJ8MJF +00MQVGCF +00SE1LVPH  9499
2 45935                          +000IZFYO +0003YMKY +0005ENB2     08
Avg worst resid: 2.41 km
Worst residual in entire run: 9.96 km on MJD 59055.0
       1     3     10    30    100   300   1K    3K    10K   km
     1    16     3     0     0     0     0     0     0     0
